     2.10           N:  GPS NAV DATA                        RINEX VERSION / TYPE
JPS2RIN V1.2.25     JAVAD GNSS          04-Jun-2018 12:59   PGM / RUN BY / DATE 
     .6519D-08   .2235D-07  -.5960D-07  -.1192D-06          ION ALPHA
     .8602D+05   .9830D+05  -.6554D+05  -.5243D+06          ION BETA
     .000000000000D+00  .266453525910D-14   319488      980 DELTA-UTC: A0,A1,T,W
    18                                                      LEAP SECONDS
                                                            END OF HEADER       
20 18  6  4 14  0  0.0  .509735196829D-03  .795807864051D-12  .000000000000D+00
     .230000000000D+02 -.284375000000D+02  .501342311491D-08 -.201441621042D+01
    -.124797224998D-05  .426985963713D-02  .897236168385D-05  .515484816170D+04
     .136800000000D+06  .372529029846D-08 -.193990794644D+01  .838190317154D-07
     .928150792132D+00  .187281250000D+03  .196148288818D+01 -.818355516363D-08
     .288226291496D-09  .100000000000D+01  .200400000000D+04  .000000000000D+00
     .200000000000D+01  .000000000000D+00 -.838190317154D-08  .230000000000D+02
     .136800000000D+06
